NORAD_CAT_ID,OBJECT_NAME,OBJECT_TYPE,EPOCH,MEAN_MOTION,ECCENTRICITY,INCLINATION,RA_OF_ASC_NODE,ARG_OF_PERICENTER,MEAN_ANOMALY,BSTAR,MEAN_MOTION_DOT,MEAN_MOTION_DDOT,TLE_LINE0,TLE_LINE1,TLE_LINE2,SEMIMAJOR_AXIS,PERIOD,APOGEE,PERIGEE,DECAYED
56782.0,STARLINK-6352,PAYLOAD,2024-07-08 20:40:16,14.98328535,0.0002977,69.9997,59.6608,270.8259,89.2559,6.1747e-06,-1.9e-07,0.0,0 STARLINK-6352,1 56782U 23078R   24190.86130396 -.00000019  00000-0  61747-5 0  9991,2 56782  69.9997  59.6608 0002977 270.8259  89.2559 14.98328535 62230,6950.197,96.107,574.131,569.993,0.0
56782.0,STARLINK-6352,PAYLOAD,2024-07-08 22:16:24,14.98330609,0.0002967,69.9997,59.4925,270.4291,89.6528,1.0756e-06,-8e-07,0.0,0 STARLINK-6352,1 56782U 23078R   24190.92806274 -.00000080  00000-0  10756-5 0  9995,2 56782  69.9997  59.4925 0002967 270.4291  89.6528 14.98330609 61987,6950.191,96.107,574.118,569.994,0.0
56782.0,STARLINK-6352,PAYLOAD,2024-07-09 01:28:40,14.9833183,0.0002952,69.9997,59.1557,270.3717,89.7103,1.4932e-05,8.5e-07,0.0,0 STARLINK-6352,1 56782U 23078R   24191.06158143  .00000085  00000-0  14932-4 0  9999,2 56782  69.9997  59.1557 0002952 270.3717  89.7103 14.98331830 62002,6950.187,96.107,574.104,570.001,0.0
56782.0,STARLINK-6352,PAYLOAD,2024-07-09 20:42:17,14.98330947,0.0002883,69.9999,57.1358,270.5446,89.5383,-3.2266e-05,-4.78e-06,0.0,0 STARLINK-6352,1 56782U 23078R   24191.86270272 -.00000478  00000-0 -32266-4 0  9993,2 56782  69.9999  57.1358 0002883 270.5446  89.5383 14.98330947 62382,6950.19,96.107,574.059,570.051,0.0
56782.0,STARLINK-6352,PAYLOAD,2024-07-09 22:18:25,14.98331094,0.0002844,70.0,56.9678,269.2913,90.792,-1.9835e-05,-3.3e-06,0.0,0 STARLINK-6352,1 56782U 23078R   24191.92946216 -.00000330  00000-0 -19835-4 0  9992,2 56782  70.0000  56.9678 0002844 269.2913  90.7920 14.98331094 62139,6950.19,96.107,574.031,570.078,0.0
56782.0,STARLINK-6352,PAYLOAD,2024-07-10 14:19:46,14.9833,0.0002835,70.0,55.2847,268.4033,91.6801,1.0708e-05,3.5e-07,0.0,0 STARLINK-6352,1 56782U 23078R   24192.59706106  .00000035  00000-0  10708-4 0  9998,2 56782  70.0000  55.2847 0002835 268.4033  91.6801 14.98330000 62238,6950.193,96.107,574.028,570.088,0.0
56782.0,STARLINK-6352,PAYLOAD,2024-07-10 20:44:18,14.98329546,0.0002843,70.0,54.6114,268.6096,91.4737,5.234e-06,-3.1e-07,0.0,0 STARLINK-6352,1 56782U 23078R   24192.86410140 -.00000031  00000-0  52340-5 0  9994,2 56782  70.0000  54.6114 0002843 268.6096  91.4737 14.98329546 62530,6950.194,96.107,574.035,570.083,0.0
56782.0,STARLINK-6352,PAYLOAD,2024-07-10 22:20:26,14.98329636,0.0002842,70.0,54.4431,268.6052,91.4782,6.0663e-06,-2.1e-07,0.0,0 STARLINK-6352,1 56782U 23078R   24192.93086131 -.00000021  00000-0  60663-5 0  9997,2 56782  70.0000  54.4431 0002842 268.6052  91.4782 14.98329636 62283,6950.194,96.107,574.034,570.084,0.0
56782.0,STARLINK-6352,PAYLOAD,2024-07-11 14:21:47,14.98329023,0.0002848,70.0001,52.7599,268.1535,91.9298,-1.2999e-05,-2.48e-06,0.0,0 STARLINK-6352,1 56782U 23078R   24193.59846219 -.00000248  00000-0 -12999-4 0  9991,2 56782  70.0001  52.7599 0002848 268.1535  91.9298 14.98329023 62385,6950.196,96.107,574.04,570.081,0.0
56782.0,STARLINK-6352,PAYLOAD,2024-07-11 23:58:35,14.98328931,0.0002863,70.0002,51.7499,267.9937,92.0894,-1.2806e-05,-2.46e-06,0.0,0 STARLINK-6352,1 56782U 23078R   24193.99902232 -.00000246  00000-0 -12806-4 0  9998,2 56782  70.0002  51.7499 0002863 267.9937  92.0894 14.98328931 62701,6950.196,96.107,574.051,570.071,0.0
56782.0,STARLINK-6352,PAYLOAD,2024-07-12 07:59:15,14.98329739,0.0002865,70.0003,50.9073,274.1018,85.9814,-4.4423e-06,-1.46e-06,0.0,0 STARLINK-6352,1 56782U 23078R   24194.33282221 -.00000146  00000-0 -44423-5 0  9996,2 56782  70.0003  50.9073 0002865 274.1018  85.9814 14.98329739 62499,6950.194,96.107,574.05,570.067,0.0
56782.0,STARLINK-6352,PAYLOAD,2024-07-12 22:24:28,14.98330669,0.0003182,69.9995,49.3918,271.1447,88.9347,-1.913e-05,-3.21e-06,0.0,0 STARLINK-6352,1 56782U 23078R   24194.93366123 -.00000321  00000-0 -19130-4 0  9997,2 56782  69.9995  49.3918 0003182 271.1447  88.9347 14.98330669 62580,6950.191,96.107,574.267,569.844,0.0
56782.0,STARLINK-6352,PAYLOAD,2024-07-13 00:00:36,14.98331902,0.000318,69.9996,49.2236,271.405,88.6744,-4.7177e-06,-1.49e-06,0.0,0 STARLINK-6352,1 56782U 23078R   24195.00042004 -.00000149  00000-0 -47177-5 0  9996,2 56782  69.9996  49.2236 0003180 271.4050  88.6744 14.98331902 62853,6950.187,96.107,574.262,569.842,0.0
56782.0,STARLINK-6352,PAYLOAD,2024-07-13 14:25:48,14.98329791,0.0003206,69.9995,47.709,271.5361,88.5431,1.8052e-07,-9.1e-07,0.0,0 STARLINK-6352,1 56782U 23078R   24195.60126129 -.00000091  00000-0  18052-6 0  9999,2 56782  69.9995  47.7090 0003206 271.5361  88.5431 14.98329791 62684,6950.194,96.107,574.287,569.83,0.0
56782.0,STARLINK-6352,PAYLOAD,2024-07-13 22:26:28,14.98333288,0.0003183,69.9996,46.8667,270.4815,89.5979,3.9162e-05,3.74e-06,0.0,0 STARLINK-6352,1 56782U 23078R   24195.93505761  .00000374  00000-0  39162-4 0  9994,2 56782  69.9996  46.8667 0003183 270.4815  89.5979 14.98333288 62731,6950.183,96.107,574.26,569.835,0.0
56782.0,STARLINK-6352,PAYLOAD,2024-07-14 00:02:36,14.98334547,0.0003181,69.9997,46.6984,270.4932,89.5863,5.2386e-05,5.32e-06,0.0,0 STARLINK-6352,1 56782U 23078R   24196.00181632  .00000532  00000-0  52386-4 0  9999,2 56782  69.9997  46.6984 0003181 270.4932  89.5863 14.98334547 63002,6950.179,96.107,574.255,569.833,0.0
56782.0,STARLINK-6352,PAYLOAD,2024-07-14 14:27:49,14.98331475,0.0003162,69.9998,45.1834,270.3766,89.7031,5.6724e-05,5.84e-06,0.0,0 STARLINK-6352,1 56782U 23078R   24196.60265673  .00000584  00000-0  56724-4 0  9990,2 56782  69.9998  45.1834 0003162 270.3766  89.7031 14.98331475 62830,6950.188,96.107,574.251,569.856,0.0
56782.0,STARLINK-6352,PAYLOAD,2024-07-14 22:28:29,14.98336977,0.0003159,69.9998,44.342,270.2705,89.8092,7.0739e-05,7.51e-06,0.0,0 STARLINK-6352,1 56782U 23078R   24196.93645200  .00000751  00000-0  70739-4 0  9992,2 56782  69.9998  44.3420 0003159 270.2705  89.8092 14.98336977 62885,6950.171,96.107,574.232,569.841,0.0
56782.0,STARLINK-6352,PAYLOAD,2024-07-15 00:04:37,14.98338266,0.0003156,69.9999,44.1736,270.2686,89.8111,8.3399e-05,9.02e-06,0.0,0 STARLINK-6352,1 56782U 23078R   24197.00321055  .00000902  00000-0  83399-4 0  9994,2 56782  69.9999  44.1736 0003156 270.2686  89.8111 14.98338266 63155,6950.167,96.106,574.226,569.839,0.0
56782.0,STARLINK-6352,PAYLOAD,2024-07-15 17:42:06,14.98328103,0.000308,70.0001,42.322,270.1096,89.971,-6.2008e-05,-8.33e-06,0.0,0 STARLINK-6352,1 56782U 23078R   24197.73757993 -.00000833  00000-0 -62008-4 0  9997,2 56782  70.0001  42.3220 0003080 270.1096  89.9710 14.98328103 63267,6950.199,96.107,574.204,569.923,0.0
56782.0,STARLINK-6352,PAYLOAD,2024-07-15 22:30:30,14.98330929,0.0003057,70.0001,41.817,270.0964,89.9845,-2.9525e-05,-4.45e-06,0.0,0 STARLINK-6352,1 56782U 23078R   24197.93785708 -.00000445  00000-0 -29525-4 0  9990,2 56782  70.0001  41.8170 0003057 270.0964  89.9845 14.98330929 63035,6950.19,96.107,574.18,569.93,0.0
56782.0,STARLINK-6352,PAYLOAD,2024-07-16 14:31:51,14.98334531,0.0002979,70.0004,40.1339,271.2863,88.7955,-3.2123e-05,-4.76e-06,0.0,0 STARLINK-6352,1 56782U 23078R   24198.60545424 -.00000476  00000-0 -32123-4 0  9996,2 56782  70.0004  40.1339 0002979 271.2863  88.7955 14.98334531 63133,6950.179,96.107,574.114,569.973,0.0
56782.0,STARLINK-6352,PAYLOAD,2024-07-16 22:32:31,14.98335066,0.0002941,70.0005,39.2932,266.9829,93.0994,-1.675e-05,-2.93e-06,0.0,0 STARLINK-6352,1 56782U 23078R   24198.93925234 -.00000293  00000-0 -16750-4 0  9998,2 56782  70.0005  39.2932 0002941 266.9829  93.0994 14.98335066 63185,6950.177,96.107,574.086,569.998,0.0
56782.0,STARLINK-6352,PAYLOAD,2024-07-17 14:33:53,14.98319382,0.0002885,70.0007,37.6094,270.614,89.4689,-6.5485e-05,-8.74e-06,0.0,0 STARLINK-6352,1 56782U 23078R   24199.60686435 -.00000874  00000-0 -65485-4 0  9994,2 56782  70.0007  37.6094 0002885 270.6140  89.4689 14.98319382 63287,6950.226,96.108,574.096,570.086,0.0
56782.0,STARLINK-6352,PAYLOAD,2024-07-17 20:58:25,14.98321177,0.0002856,70.0006,36.936,270.9825,89.1006,-3.853e-05,-5.53e-06,0.0,0 STARLINK-6352,1 56782U 23078R   24199.87390401 -.00000553  00000-0 -38530-4 0  9993,2 56782  70.0006  36.9360 0002856 270.9825  89.1006 14.98321177 63583,6950.22,96.108,574.07,570.1,0.0
56782.0,STARLINK-6352,PAYLOAD,2024-07-17 22:34:33,14.9832215,0.0002852,70.0007,36.7678,270.7727,89.3105,-2.8162e-05,-4.29e-06,0.0,0 STARLINK-6352,1 56782U 23078R   24199.94066341 -.00000429  00000-0 -28162-4 0  9996,2 56782  70.0007  36.7678 0002852 270.7727  89.3105 14.98322150 63336,6950.217,96.108,574.064,570.1,0.0
56782.0,STARLINK-6352,PAYLOAD,2024-07-18 14:35:53,14.98331547,0.0002891,70.0006,35.0842,272.071,88.0118,8.3551e-06,7e-08,0.0,0 STARLINK-6352,1 56782U 23078R   24200.60825788  .00000007  00000-0  83551-5 0  9994,2 56782  70.0006  35.0842 0002891 272.0710  88.0118 14.98331547 63431,6950.188,96.107,574.062,570.044,0.0
56782.0,STARLINK-6352,PAYLOAD,2024-07-18 21:00:25,14.98331712,0.000289,70.0005,34.4114,269.8802,90.2026,2.5891e-05,2.16e-06,0.0,0 STARLINK-6352,1 56782U 23078R   24200.87529695  .00000216  00000-0  25891-4 0  9995,2 56782  70.0005  34.4114 0002890 269.8802  90.2026 14.98331712 63730,6950.188,96.107,574.061,570.044,0.0
56782.0,STARLINK-6352,PAYLOAD,2024-07-18 22:36:33,14.98332294,0.0002887,70.0005,34.243,269.9623,90.1205,3.2504e-05,2.95e-06,0.0,0 STARLINK-6352,1 56782U 23078R   24200.94205636  .00000295  00000-0  32504-4 0  9995,2 56782  70.0005  34.2430 0002887 269.9623  90.1205 14.98332294 63483,6950.186,96.107,574.057,570.044,0.0
56782.0,STARLINK-6352,PAYLOAD,2024-07-19 14:37:54,14.98325226,0.0003013,70.0,32.5586,270.4039,89.6775,0.00010913,1.209e-05,0.0,0 STARLINK-6352,1 56782U 23078R   24201.60965817  .00001209  00000-0  10913-3 0  9998,2 56782  70.0000  32.5586 0003013 270.4039  89.6775 14.98325226 63584,6950.208,96.107,574.167,569.979,0.0
